{
  "type": "FeatureCollection",
  "features": [
    {
      "type": "Feature",
      "properties": {
        "norad_id": 34589,
        "name": "COSMOS 2251 DEB",
        "group": "cosmos-2251-debris",
        "lat": 30.476905748301192,
        "lon": 48.55090241264578,
        "alt_km": 823.4918702062832,
        "timestamp": "2025-12-22T20:43:46.242834+00:00",
        "meta_object_name": "COSMOS 2251 DEB",
        "meta_object_id": "1993-036WB",
        "meta_epoch": "2025-12-21T14:08:27.386304",
        "meta_mean_motion": 13.86061939,
        "meta_eccentricity": 0.0252385,
        "meta_inclination": 73.9249,
        "meta_ra_of_asc_node": 40.952,
        "meta_arg_of_pericenter": 342.507,
        "meta_mean_anomaly": 169.9679,
        "meta_ephemeris_type": 0,
        "meta_classification_type": "U",
        "meta_norad_cat_id": 34589,
        "meta_element_set_no": 999,
        "meta_rev_at_epoch": 84834,
        "meta_bstar": 0.00033302,
        "meta_mean_motion_dot": 4.67e-06,
        "meta_mean_motion_ddot": 0,
        "tle_line1": "1 34589U 93036WB  25355.58920586  .00000467  00000+0  33302-3 0  9993",
        "tle_line2": "2 34589  73.9249  40.9520 0252385 342.5070 169.9679 13.86061939848341"
      },
      "geometry": {
        "type": "Point",
        "coordinates": [
          48.55090241264578,
          30.476905748301192
        ]
      }
    },
    {
      "type": "Feature",
      "properties": {
        "norad_id": 34590,
        "name": "COSMOS 2251 DEB",
        "group": "cosmos-2251-debris",
        "lat": -2.431130846766489,
        "lon": -57.296838742268946,
        "alt_km": 698.0172430064013,
        "timestamp": "2025-12-22T20:43:46.242844+00:00",
        "meta_object_name": "COSMOS 2251 DEB",
        "meta_object_id": "1993-036WC",
        "meta_epoch": "2025-12-22T06:27:48.696768",
        "meta_mean_motion": 14.54836629,
        "meta_eccentricity": 0.00680342,
        "meta_inclination": 74.0443,
        "meta_ra_of_asc_node": 304.5231,
        "meta_arg_of_pericenter": 71.336,
        "meta_mean_anomaly": 55.0668,
        "meta_ephemeris_type": 0,
        "meta_classification_type": "U",
        "meta_norad_cat_id": 34590,
        "meta_element_set_no": 999,
        "meta_rev_at_epoch": 89259,
        "meta_bstar": 0.0001329784,
        "meta_mean_motion_dot": 5.59e-06,
        "meta_mean_motion_ddot": 0,
        "tle_line1": "1 34590U 93036WC  25356.26931362  .00000559  00000+0  13298-3 0  9999",
        "tle_line2": "2 34590  74.0443 304.5231 0068034  71.3360  55.0668 14.54836629892595"
      },
      "geometry": {
        "type": "Point",
        "coordinates": [
          -57.296838742268946,
          -2.431130846766489
        ]
      }
    },
    {
      "type": "Feature",
      "properties": {
        "norad_id": 34609,
        "name": "COSMOS 2251 DEB",
        "group": "cosmos-2251-debris",
        "lat": 6.801921059125252,
        "lon": 90.21444041959947,
        "alt_km": 768.9120510230314,
        "timestamp": "2025-12-22T20:43:46.242853+00:00",
        "meta_object_name": "COSMOS 2251 DEB",
        "meta_object_id": "1993-036WE",
        "meta_epoch": "2025-12-22T12:18:42.095808",
        "meta_mean_motion": 14.21825611,
        "meta_eccentricity": 0.01456888,
        "meta_inclination": 73.7327,
        "meta_ra_of_asc_node": 88.8594,
        "meta_arg_of_pericenter": 306.8419,
        "meta_mean_anomaly": 64.3001,
        "meta_ephemeris_type": 0,
        "meta_classification_type": "U",
        "meta_norad_cat_id": 34609,
        "meta_element_set_no": 999,
        "meta_rev_at_epoch": 86771,
        "meta_bstar": 0.00071152645,
        "meta_mean_motion_dot": 1.717e-05,
        "meta_mean_motion_ddot": 0,
        "tle_line1": "1 34609U 93036WE  25356.51298722  .00001717  00000+0  71153-3 0  9995",
        "tle_line2": "2 34609  73.7327  88.8594 0145688 306.8419  64.3001 14.21825611867712"
      },
      "geometry": {
        "type": "Point",
        "coordinates": [
          90.21444041959947,
          6.801921059125252
        ]
      }
    },
    {
      "type": "Feature",
      "properties": {
        "norad_id": 34610,
        "name": "COSMOS 2251 DEB",
        "group": "cosmos-2251-debris",
        "lat": -5.7523206267228355,
        "lon": -117.08962969207687,
        "alt_km": 748.1333808386953,
        "timestamp": "2025-12-22T20:43:46.242864+00:00",
        "meta_object_name": "COSMOS 2251 DEB",
        "meta_object_id": "1993-036WF",
        "meta_epoch": "2025-12-22T08:48:47.099520",
        "meta_mean_motion": 14.07114978,
        "meta_eccentricity": 0.01809249,
        "meta_inclination": 74.0167,
        "meta_ra_of_asc_node": 245.4354,
        "meta_arg_of_pericenter": 13.8798,
        "meta_mean_anomaly": 346.7216,
        "meta_ephemeris_type": 0,
        "meta_classification_type": "U",
        "meta_norad_cat_id": 34610,
        "meta_element_set_no": 999,
        "meta_rev_at_epoch": 85695,
        "meta_bstar": 0.0018748958,
        "meta_mean_motion_dot": 3.617e-05,
        "meta_mean_motion_ddot": 0,
        "tle_line1": "1 34610U 93036WF  25356.36721180  .00003617  00000+0  18749-2 0  9991",
        "tle_line2": "2 34610  74.0167 245.4354 0180924  13.8798 346.7216 14.07114978856952"
      },
      "geometry": {
        "type": "Point",
        "coordinates": [
          -117.08962969207687,
          -5.7523206267228355
        ]
      }
    },
    {
      "type": "Feature",
      "properties": {
        "norad_id": 34611,
        "name": "COSMOS 2251 DEB",
        "group": "cosmos-2251-debris",
        "lat": 13.590168535756115,
        "lon": -102.5914203332063,
        "alt_km": 652.2634784422507,
        "timestamp": "2025-12-22T20:43:46.242873+00:00",
        "meta_object_name": "COSMOS 2251 DEB",
        "meta_object_id": "1993-036WG",
        "meta_epoch": "2025-12-22T00:37:52.656960",
        "meta_mean_motion": 14.69657582,
        "meta_eccentricity": 0.00217381,
        "meta_inclination": 74.0537,
        "meta_ra_of_asc_node": 82.9923,
        "meta_arg_of_pericenter": 121.1927,
        "meta_mean_anomaly": 295.5639,
        "meta_ephemeris_type": 0,
        "meta_classification_type": "U",
        "meta_norad_cat_id": 34611,
        "meta_element_set_no": 999,
        "meta_rev_at_epoch": 88527,
        "meta_bstar": 0.0014537686,
        "meta_mean_motion_dot": 8.662e-05,
        "meta_mean_motion_ddot": 0,
        "tle_line1": "1 34611U 93036WG  25356.02630390  .00008662  00000+0  14538-2 0  9994",
        "tle_line2": "2 34611  74.0537  82.9923 0021738 121.1927 295.5639 14.69657582885272"
      },
      "geometry": {
        "type": "Point",
        "coordinates": [
          -102.5914203332063,
          13.590168535756115
        ]
      }
    },
    {
      "type": "Feature",
      "properties": {
        "norad_id": 34613,
        "name": "COSMOS 2251 DEB",
        "group": "cosmos-2251-debris",
        "lat": 53.88329515823864,
        "lon": 56.95385688048341,
        "alt_km": 731.4637904907422,
        "timestamp": "2025-12-22T20:43:46.242883+00:00",
        "meta_object_name": "COSMOS 2251 DEB",
        "meta_object_id": "1993-036WJ",
        "meta_epoch": "2025-12-22T00:02:12.767424",
        "meta_mean_motion": 14.26485376,
        "meta_eccentricity": 0.011054,
        "meta_inclination": 73.9632,
        "meta_ra_of_asc_node": 261.7345,
        "meta_arg_of_pericenter": 91.1369,
        "meta_mean_anomaly": 285.001,
        "meta_ephemeris_type": 0,
        "meta_classification_type": "U",
        "meta_norad_cat_id": 34613,
        "meta_element_set_no": 999,
        "meta_rev_at_epoch": 86595,
        "meta_bstar": 0.0011767,
        "meta_mean_motion_dot": 2.999e-05,
        "meta_mean_motion_ddot": 0,
        "tle_line1": "1 34613U 93036WJ  25356.00153666  .00002999  00000+0  11767-2 0  9998",
        "tle_line2": "2 34613  73.9632 261.7345 0110540  91.1369 285.0010 14.26485376865952"
      },
      "geometry": {
        "type": "Point",
        "coordinates": [
          56.95385688048341,
          53.88329515823864
        ]
      }
    },
    {
      "type": "Feature",
      "properties": {
        "norad_id": 34614,
        "name": "COSMOS 2251 DEB",
        "group": "cosmos-2251-debris",
        "lat": 69.57729592857451,
        "lon": 16.615078764224865,
        "alt_km": 893.5659374247707,
        "timestamp": "2025-12-22T20:43:46.242893+00:00",
        "meta_object_name": "COSMOS 2251 DEB",
        "meta_object_id": "1993-036WK",
        "meta_epoch": "2025-12-18T23:21:59.727744",
        "meta_mean_motion": 14.17670739,
        "meta_eccentricity": 0.0197223,
        "meta_inclination": 73.8822,
        "meta_ra_of_asc_node": 332.666,
        "meta_arg_of_pericenter": 325.6345,
        "meta_mean_anomaly": 63.1604,
        "meta_ephemeris_type": 0,
        "meta_classification_type": "U",
        "meta_norad_cat_id": 34614,
        "meta_element_set_no": 999,
        "meta_rev_at_epoch": 84855,
        "meta_bstar": 0.0046815228,
        "meta_mean_motion_dot": 0.00011531,
        "meta_mean_motion_ddot": 0,
        "tle_line1": "1 34614U 93036WK  25352.97360796  .00011531  00000+0  46815-2 0  9999",
        "tle_line2": "2 34614  73.8822 332.6660 0197223 325.6345  63.1604 14.17670739848553"
      },
      "geometry": {
        "type": "Point",
        "coordinates": [
          16.615078764224865,
          69.57729592857451
        ]
      }
    }
  ]
}